;	Path 1
;	======
;
; Tarmac Machine Start of Day


M106 S0				(Solenoid Off)
G4 S6

G1 X85 Y230 Z266 F700		(Starting position)

M106 S255			(Solenoid On)
G4 S6

G1 X85.125 Y229.642 Z266.217
G1 X87.467 Y229.491 Z266.314
G1 X90.112 Y229.325 Z266.411
G1 X93.004 Y229.15 Z266.54
G1 X96.087 Y228.97 Z266.661
G1 X97.684 Y228.88 Z266.777
G1 X99.307 Y228.791 Z266.864
G1 X100.951 Y228.704 Z266.973
G1 X104.27 Y228.535 Z267.088
G1 X107.588 Y228.38 Z267.328
G1 X109.228 Y228.31 Z267.559
G1 X110.847 Y228.244 Z267.668
G1 X112.438 Y228.185 Z267.879
G1 X113.993 Y228.132 Z268.051
G1 X115.506 Y228.087 Z268.299
G1 X116.97 Y228.049 Z268.516
G1 X118.378 Y228.02 Z268.823
G1 X119.723 Y228 Z269.151
G1 X122.774 Y227.98 Z269.627
G1 X125.777 Y227.989 Z270.169
G1 X128.739 Y228.022 Z270.636
G1 X131.666 Y228.076 Z271.054
G1 X137.445 Y228.233 Z271.554
G1 X143.168 Y228.429 Z271.959
G1 X148.892 Y228.634 Z272.049
G1 X154.671 Y228.817 Z271.811
G1 X157.598 Y228.892 Z271.465
G1 X160.56 Y228.949 Z271.1
G1 X163.563 Y228.987 Z270.722
G1 X166.614 Y229 Z270.241
G1 X168.633 Y229.025 Z270.707
G1 X170.63 Y229.093 Z271.948
G1 X172.606 Y229.191 Z272.837
G1 X174.565 Y229.308 Z273.415
G1 X178.44 Y229.555 Z273.645
G1 X182.271 Y229.739 Z272.747
G1 X184.177 Y229.779 Z271.2
G1 X186.079 Y229.768 Z269.671
G1 X187.979 Y229.696 Z267.832
G1 X189.881 Y229.55 Z265.613
G1 X191.786 Y229.319 Z263.089
G1 X193.696 Y228.991 Z260.258
G1 X194.654 Y228.788 Z258.038
G1 X195.614 Y228.556 Z256.416
G1 X196.577 Y228.294 Z254.782
G1 X197.543 Y228 Z253.075
G1 X200.414 Y227.048 Z251.657
G1 X203.225 Y226.05 Z250.455
G1 X205.98 Y225.004 Z249.212
G1 X208.682 Y223.906 Z247.887
G1 X211.337 Y222.756 Z246.582
G1 X213.947 Y221.55 Z245.202
G1 X216.517 Y220.288 Z243.849
G1 X219.049 Y218.966 Z242.432
G1 X221.549 Y217.583 Z241.05
G1 X224.02 Y216.136 Z239.649
G1 X226.465 Y214.624 Z238.269
G1 X228.889 Y213.043 Z236.888
G1 X231.296 Y211.393 Z235.571
G1 X233.689 Y209.67 Z234.247
G1 X236.071 Y207.873 Z232.97
G1 X238.448 Y206 Z231.765
G1 X239.292 Y205.302 Z230.41
G1 X240.108 Y204.591 Z228.935
G1 X240.899 Y203.865 Z227.455
G1 X241.665 Y203.127 Z226.068
G1 X243.129 Y201.612 Z224.02
G1 X244.51 Y200.05 Z221.482
G1 X245.819 Y198.445 Z219.201
G1 X247.065 Y196.801 Z217.16
G1 X248.261 Y195.12 Z215.432
G1 X249.415 Y193.408 Z213.984
G1 X251.64 Y189.901 Z212.394
G1 X253.825 Y186.311 Z211.327
G1 X254.928 Y184.494 Z211.261
G1 X256.051 Y182.667 Z211.579
G1 X257.206 Y180.835 Z212.231
G1 X258.402 Y179 Z213.096
G1 X260.16 Y176.407 Z214.137
G1 X261.9 Y173.885 Z214.604
G1 X263.594 Y171.394 Z214.219
G1 X265.214 Y168.893 Z212.934
G1 X265.986 Y167.626 Z211.355
G1 X266.73 Y166.343 Z210.11
G1 X267.441 Y165.037 Z208.565
G1 X268.115 Y163.704 Z206.823
G1 X268.749 Y162.339 Z204.914
G1 X269.339 Y160.936 Z202.809
G1 X269.882 Y159.492 Z200.609
G1 X270.374 Y158 Z198.251
G1 X270.94 Y156.049 Z196.178
G1 X271.436 Y154.114 Z194.378
G1 X271.869 Y152.192 Z192.696
G1 X272.245 Y150.28 Z191.126
G1 X272.568 Y148.375 Z189.623
G1 X272.846 Y146.474 Z188.32
G1 X273.084 Y144.574 Z187.14
G1 X273.287 Y142.671 Z186.089
G1 X273.613 Y138.847 Z184.873
G1 X273.871 Y134.977 Z183.814
G1 X274.106 Y131.036 Z183.413
G1 X274.365 Y127 Z183.672
G1 X274.591 Y123.647 Z183.856
G1 X274.781 Y120.379 Z183.328
G1 X274.921 Y117.168 Z182.497
G1 X274.997 Y113.986 Z181.368
G1 X274.993 Y110.805 Z179.928
G1 X274.897 Y107.599 Z178.285
G1 X274.809 Y105.978 Z176.893
G1 X274.692 Y104.34 Z175.914
G1 X274.545 Y102.682 Z174.933
G1 X274.365 Y101 Z173.892
G1 X274.081 Y98.716 Z172.912
G1 X273.75 Y96.482 Z171.572
G1 X273.558 Y95.383 Z170.09
G1 X273.346 Y94.295 Z168.974
G1 X273.109 Y93.219 Z167.578
G1 X272.844 Y92.155 Z166.014
G1 X272.55 Y91.101 Z164.414
G1 X272.221 Y90.057 Z162.508
G1 X271.857 Y89.024 Z160.588
G1 X271.452 Y88 Z158.42
G1 X271.005 Y86.987 Z156.189
G1 X270.512 Y85.982 Z153.869
G1 X269.97 Y84.987 Z151.421
G1 X269.377 Y84 Z149.001
G1 X268.691 Y82.966 Z146.437
G1 X267.975 Y81.978 Z144.068
G1 X267.228 Y81.034 Z141.644
G1 X266.453 Y80.13 Z139.392
G1 X265.651 Y79.262 Z137.262
G1 X264.822 Y78.425 Z135.274
G1 X263.97 Y77.617 Z133.48
G1 X263.094 Y76.834 Z131.79
G1 X261.277 Y75.326 Z129.689
G1 X259.384 Y73.871 Z127.545
G1 X257.424 Y72.439 Z126.151
G1 X255.409 Y71 Z125.531
G1 X253.926 Y69.972 Z124.728
G1 X252.444 Y68.996 Z123.366
G1 X250.963 Y68.066 Z122.125
G1 X249.48 Y67.173 Z121.053
G1 X246.512 Y65.477 Z119.743
G1 X243.535 Y63.854 Z118.597
G1 X240.546 Y62.248 Z118.247
G1 X237.541 Y60.607 Z118.637
G1 X236.031 Y59.756 Z119.403
G1 X234.515 Y58.876 Z120.132
G1 X232.993 Y57.959 Z121.067
G1 X231.464 Y57 Z122.095
G1 X229.748 Y55.871 Z123.34
G1 X228.08 Y54.725 Z124.489
G1 X226.454 Y53.565 Z125.503
G1 X224.862 Y52.394 Z126.335
G1 X221.747 Y50.04 Z127.077
G1 X218.672 Y47.693 Z127.351
G1 X217.131 Y46.532 Z126.993
G1 X215.575 Y45.384 Z126.418
G1 X213.999 Y44.254 Z125.639
G1 X212.394 Y43.145 Z124.642
G1 X210.751 Y42.062 Z123.39
G1 X209.064 Y41.007 Z122.019
G1 X207.324 Y39.985 Z120.426
G1 X205.524 Y39 Z118.687
G1 X201.466 Y36.847 Z117.947
G1 X197.483 Y34.749 Z117.776
G1 X195.505 Y33.736 Z117.117
G1 X193.529 Y32.755 Z116.401
G1 X191.549 Y31.812 Z115.465
G1 X189.56 Y30.912 Z114.344
G1 X187.554 Y30.062 Z112.962
G1 X185.528 Y29.267 Z111.423
G1 X183.474 Y28.534 Z109.638
G1 X181.388 Y27.869 Z107.68
G1 X179.263 Y27.277 Z105.565
G1 X177.094 Y26.764 Z103.304
G1 X175.991 Y26.539 Z101.527
G1 X174.875 Y26.336 Z100.307
G1 X173.745 Y26.156 Z99.048
G1 X172.601 Y26 Z97.763
G1 X171.119 Y25.819 Z96.961
G1 X169.668 Y25.649 Z96.68
G1 X168.245 Y25.49 Z96.373
G1 X166.849 Y25.341 Z96.09
G1 X164.132 Y25.07 Z95.693
G1 X161.504 Y24.83 Z95.216
G1 X158.955 Y24.614 Z94.841
G1 X156.472 Y24.416 Z94.557
G1 X151.657 Y24.047 Z94.38
G1 X146.967 Y23.672 Z94.569
G1 X142.305 Y23.24 Z95.292
G1 X139.956 Y22.987 Z96.145
G1 X137.579 Y22.7 Z96.882
G1 X135.162 Y22.373 Z97.702
G1 X132.693 Y22 Z98.588
G1 X131.076 Y21.728 Z99.546
G1 X129.489 Y21.434 Z100.493
G1 X127.93 Y21.118 Z101.456
G1 X126.396 Y20.784 Z102.281
G1 X123.397 Y20.064 Z103.498
G1 X120.478 Y19.286 Z104.922
G1 X117.621 Y18.462 Z106.086
G1 X114.812 Y17.606 Z106.946
G1 X112.033 Y16.729 Z107.513
G1 X109.27 Y15.844 Z107.758
G1 X106.506 Y14.965 Z107.639
G1 X103.725 Y14.102 Z107.238
G1 X100.912 Y13.27 Z106.474
G1 X98.051 Y12.481 Z105.415
G1 X96.597 Y12.106 Z104.46
G1 X95.125 Y11.746 Z103.741
G1 X93.633 Y11.404 Z102.908
G1 X92.118 Y11.08 Z102.069
G1 X90.58 Y10.776 Z101.179
G1 X89.016 Y10.493 Z100.254
G1 X87.424 Y10.234 Z99.238
G1 X85.801 Y10 Z98.202
G1 X80.737 Y9.299 Z97.879
G1 X75.734 Y8.577 Z98.209
G1 X70.774 Y7.837 Z98.483
G1 X65.836 Y7.084 Z98.668
G1 X60.899 Y6.32 Z98.794
G1 X55.943 Y5.549 Z98.84
G1 X50.948 Y4.774 Z98.817
G1 X45.894 Y4 Z98.705
G1 X44.139 Y3.74 Z98.425
G1 X42.426 Y3.499 Z98.006
G1 X40.749 Y3.274 Z97.639
G1 X39.104 Y3.064 Z97.273
G1 X35.888 Y2.682 Z96.771
G1 X32.736 Y2.335 Z96.28
G1 X29.608 Y2.009 Z95.947
G1 X24.87 Y1.525 Z95.83
G1 X23.258 Y1.357 Z95.947
G1 X21.621 Y1.183 Z96.065
G1 X19.954 Y1 Z96.262
G1 X19.313 Y0.932 Z96.053
G1 X18.637 Y0.867 Z95.49
G1 X17.929 Y0.805 Z95.002
G1 X17.193 Y0.745 Z94.658
G1 X15.65 Y0.634 Z94.112
G1 X14.039 Y0.532 Z93.62
G1 X10.727 Y0.359 Z92.988
G1 X7.49 Y0.223 Z92.403
G1 X5.974 Y0.168 Z92.075
G1 X4.565 Y0.122 Z91.867
G1 X3.292 Y0.083 Z91.752
G1 X2.185 Y0.052 Z91.601
G1 X0.585 Y0.013 Z91.394
G1 X0 Y0 Z91.27

M106 S0				(Solenoid Off)
G4 S6

