M106 S0
G4 S2
G1 X98 Y125 Z200 F400
M106 S255
G4 S2
G1 X98.8 Y123.6 Z210.5 F100
G1 X99.3 Y122.9 Z212.3 F100
G1 X99.7 Y122.2 Z214 F100
G1 X100.7 Y120.9 Z216.4 F100
G1 X101.7 Y119.6 Z219.3 F100
G1 X102.9 Y118.3 Z221.7 F100
G1 X104 Y117.1 Z223.6 F100
G1 X105.2 Y115.9 Z225.2 F100
G1 X106.5 Y114.7 Z226.3 F100
G1 X107.8 Y113.5 Z226.9 F100
G1 X109.1 Y112.3 Z227.2 F100
G1 X110.4 Y111 Z227.1 F100
G1 X111.8 Y109.7 Z226.6 F100
G1 X113.2 Y108.4 Z225.8 F100
G1 X114.5 Y107 Z224.6 F100
G1 X115.9 Y105.6 Z223.2 F100
G1 X117.2 Y104.1 Z221.5 F100
G1 X118.5 Y102.5 Z219.5 F100
G1 X119.8 Y100.8 Z217.4 F100
G1 X120.5 Y99.9 Z215.6 F100
G1 X121.1 Y99 Z214.4 F100
G1 X121.7 Y98.1 Z213.2 F100
G1 X122.3 Y97.1 Z211.8 F100
G1 X122.9 Y96.1 Z210.6 F100
G1 X123.5 Y95.1 Z209.2 F100
G1 X124 Y94 Z207.8 F100
G1 X124.6 Y92.9 Z206.5 F100
G1 X125.1 Y91.8 Z205.1 F100
G1 X125.6 Y90.6 Z203.8 F100
G1 X126.1 Y89.4 Z202.3 F100
G1 X126.6 Y88.2 Z201 F100
G1 X127 Y86.9 Z199.6 F100
G1 X127.5 Y85.6 Z198.3 F100
G1 X127.9 Y84.2 Z196.9 F100
G1 X128.3 Y82.8 Z195.6 F100
G1 X128.7 Y81.3 Z194.3 F100
G1 X129 Y79.8 Z193.1 F100
G1 X129.3 Y78.3 Z191.8 F100
G1 X129.6 Y76.7 Z190.5 F100
G1 X129.9 Y75 Z189.4 F100
G1 X130.2 Y73.3 Z188.2 F100
G1 X130.4 Y71.6 Z187 F100
G1 X130.6 Y69.7 Z185.9 F100
G1 X130.7 Y67.9 Z184.8 F100
G1 X130.8 Y66 Z183.8 F100
G1 X130.9 Y64 Z182.8 F100
G1 X130.3 Y62 Z192.2 F100
