; Onboarding RFID object path 1
; Drives the object under the overhead RFID antenna
G1 X6.000 Y0.000 Z90.000 F0.0
G1 X16.000 Y0.000 Z90.000 F600.0
G1 X30.000 Y0.000 Z90.000 F840.0
G1 X42.000 Y0.000 Z90.000 F720.0
G1 X52.000 Y0.000 Z90.000 F600.0
G1 X62.000 Y0.000 Z90.000 F600.0
G1 X72.000 Y0.000 Z90.000 F600.0
G1 X82.000 Y0.000 Z90.000 F600.0
G1 X92.000 Y0.000 Z90.000 F600.0
G1 X102.000 Y0.000 Z90.000 F600.0
G1 X112.000 Y0.000 Z90.000 F600.0
G1 X122.000 Y0.000 Z90.000 F600.0
G1 X132.000 Y0.000 Z90.000 F600.0
G1 X142.000 Y0.000 Z90.000 F600.0
G1 X152.000 Y0.000 Z90.000 F600.0
G1 X162.000 Y0.000 Z90.000 F600.0
G1 X170.000 Y0.000 Z90.000 F480.0
G1 X176.000 Y0.000 Z90.000 F360.0
G1 X182.000 Y0.000 Z90.000 F360.0
G1 X188.000 Y0.000 Z90.000 F360.0
G1 X192.000 Y0.000 Z90.000 F240.0
G1 X196.000 Y0.000 Z90.000 F240.0
G1 X200.000 Y0.000 Z90.000 F240.0
G1 X204.000 Y0.000 Z90.000 F240.0
G1 X208.000 Y0.000 Z90.000 F240.0
G1 X212.000 Y0.000 Z90.000 F240.0
G1 X216.000 Y0.000 Z90.000 F240.0
G1 X220.000 Y0.000 Z90.000 F240.0
G1 X224.000 Y0.000 Z90.000 F240.0
G1 X228.000 Y0.000 Z90.000 F240.0
G1 X232.000 Y0.000 Z90.000 F240.0
G1 X236.000 Y0.000 Z90.000 F240.0
G1 X240.000 Y0.000 Z90.000 F240.0
G1 X244.000 Y0.000 Z90.000 F240.0
G1 X248.000 Y0.000 Z90.000 F240.0
G1 X252.000 Y0.000 Z90.000 F240.0

