# Start of Day file for Cherry Picker
M106 S0
G4 S2
G1	X0.000	Y0.000	Z90.000
M106 S255
G4 S2
G1 X2.8 Y0.5 Z93 F100
G1 X4.6 Y1 Z95 F100
G1 X6.5 Y1.4 Z98 F100
G1 X8.4 Y1.9 Z100 F100
G1 X10.4 Y2.4 Z102 F100
G1 X12.5 Y3 Z104 F100
G1 X14.6 Y3.5 Z103.8 F100
G1 X16.7 Y4 Z103.7 F100
G1 X18.9 Y4.5 Z103.5 F100
G1 X21.1 Y5.1 Z103.4 F100
G1 X23.4 Y5.6 Z103.3 F100
G1 X25.7 Y6.1 Z103.2 F100
G1 X28.1 Y6.7 Z103.1 F100
G1 X30.4 Y7.2 Z102.9 F100
G1 X32.8 Y7.8 Z102.9 F100
G1 X35.3 Y8.3 Z102.8 F100
G1 X40.2 Y9.4 Z102.6 F100
G1 X45.2 Y10.5 Z102.5 F100
G1 X50.2 Y11.6 Z102.4 F100
G1 X55.3 Y12.7 Z102.2 F100
G1 X60.4 Y13.8 Z102.1 F100
G1 X65.4 Y14.9 Z102 F100
G1 X70.5 Y16 Z101.9 F100
G1 X75.5 Y17 Z101.8 F100
G1 X80.4 Y18 Z101.7 F100
G1 X85.3 Y19 Z101.6 F100
G1 X87.6 Y19.5 Z101.5 F100
G1 X92.3 Y20.4 Z101.5 F100
G1 X96.8 Y21.3 Z101.3 F100
G1 X101.2 Y22.2 Z101.3 F100
G1 X105.4 Y23 Z101.2 F100
G1 X109.3 Y23.8 Z101.1 F100
G1 X113.1 Y24.5 Z101 F100
G1 X116.6 Y25.2 Z100.9 F100
G1 X119.8 Y25.8 Z100.7 F100
G1 X121.4 Y26.1 Z100.6 F100
G1 X122.8 Y26.4 Z100.5 F100
G1 X124.2 Y26.6 Z100.5 F100
G1 X125.4 Y26.9 Z100.3 F100
G1 X126.6 Y27.1 Z100.3 F100
G1 X127.8 Y27.3 Z100.1 F100
G1 X128.8 Y27.5 Z100 F100
G1 X129.7 Y27.6 Z99.8 F100
G1 X130.6 Y27.8 Z99.5 F100
G1 X131.3 Y27.9 Z99.3 F100
G1 X132 Y28 Z99 F100
G1 X130.8 Y28.2 Z82.4 F100
G1 X129.7 Y28.3 Z80.9 F100
G1 X128.7 Y28.5 Z79.3 F100
G1 X127.6 Y28.8 Z77.8 F100
G1 X126.7 Y29 Z76 F100
G1 X125.7 Y29.3 Z74.4 F100
G1 X124.8 Y29.6 Z72.5 F100
G1 X123.9 Y29.9 Z70.7 F100
G1 X123.1 Y30.2 Z68.8 F100
G1 X122.3 Y30.5 Z66.9 F100
G1 X121.5 Y30.9 Z64.8 F100
G1 X120.8 Y31.3 Z62.8 F100
G1 X120 Y31.7 Z60.7 F100
G1 X119.4 Y32.1 Z58.6 F100
G1 X118.7 Y32.5 Z56.5 F100
G1 X118.1 Y33 Z54.4 F100
G1 X117.5 Y33.4 Z52.2 F100
G1 X117 Y33.9 Z50 F100
G1 X116.4 Y34.4 Z47.9 F100
G1 X115.9 Y34.8 Z45.8 F100
G1 X115.5 Y35.3 Z43.7 F100
G1 X115 Y35.9 Z41.6 F100
G1 X114.6 Y36.4 Z39.5 F100
G1 X114.2 Y36.9 Z37.6 F100
G1 X113.4 Y38 Z34.7 F100
G1 X112.7 Y39.1 Z31.1 F100
G1 X112.1 Y40.2 Z27.7 F100
G1 X111.6 Y41.4 Z24.6 F100
G1 X111.2 Y42.5 Z21.9 F100
G1 X110.8 Y43.7 Z19.4 F100
G1 X110.4 Y44.8 Z17.4 F100
G1 X110.1 Y46 Z15.6 F100
G1 X109.8 Y47.1 Z14.1 F100
G1 X109.5 Y48.2 Z13 F100
G1 X109.3 Y49.3 Z12.2 F100
G1 X108.9 Y51.4 Z11.9 F100
G1 X108.7 Y52.4 Z12.4 F100
G1 X108.4 Y53.3 Z13.4 F100
G1 X108.2 Y54.2 Z14.9 F100
G1 X107.9 Y55 Z17.2 F100
G1 X107.7 Y55.7 Z20.5 F100
G1 X107.4 Y56.4 Z24.7 F100
G1 X107 Y57 Z30.3 F100
G1 X106.8 Y57.8 Z13.9 F100
G1 X106.5 Y58.7 Z16.6 F100
G1 X106.3 Y59.5 Z19.3 F100
G1 X105.9 Y60.3 Z21.9 F100
G1 X105.6 Y61.1 Z24.4 F100
G1 X105.2 Y61.8 Z26.8 F100
G1 X104.8 Y62.6 Z29.1 F100
G1 X104.3 Y63.3 Z31.3 F100
G1 X103.8 Y64.1 Z33.5 F100
G1 X103.3 Y64.8 Z35.5 F100
G1 X102.8 Y65.5 Z37.5 F100
G1 X102.2 Y66.2 Z39.4 F100
G1 X101.6 Y66.8 Z41.3 F100
G1 X101 Y67.5 Z43 F100
G1 X100.4 Y68.1 Z44.7 F100
G1 X99.8 Y68.8 Z46.3 F100
G1 X98.4 Y69.9 Z48.7 F100
G1 X97 Y71 Z51.7 F100
G1 X95.5 Y72.1 Z54.5 F100
G1 X94.1 Y73 Z57.3 F100
G1 X92.6 Y73.9 Z60 F100
G1 X91 Y74.7 Z62.7 F100
G1 X89.5 Y75.4 Z65.3 F100
G1 X88 Y76 Z68 F100
G1 X87.5 Y76.3 Z61 F100
G1 X86.9 Y76.5 Z64.4 F100
G1 X86.3 Y76.8 Z67.2 F100
G1 X85.6 Y77.1 Z69.6 F100
G1 X84.9 Y77.3 Z71.6 F100
G1 X84.1 Y77.5 Z73.3 F100
G1 X83.3 Y77.8 Z74.9 F100
G1 X82.4 Y78 Z76.2 F100
G1 X81.5 Y78.2 Z77.3 F100
G1 X80.5 Y78.4 Z78.4 F100
G1 X79.5 Y78.6 Z79.3 F100
G1 X78.4 Y78.8 Z80.2 F100
G1 X77.3 Y78.9 Z80.9 F100
G1 X76.1 Y79.1 Z81.5 F100
G1 X74.9 Y79.3 Z82.2 F100
G1 X73.7 Y79.4 Z82.8 F100
G1 X72.4 Y79.6 Z83.3 F100
G1 X71.1 Y79.7 Z83.8 F100
G1 X69.8 Y79.9 Z84.3 F100
G1 X68.4 Y80 Z84.6 F100
G1 X67 Y80.1 Z85.1 F100
G1 X65.6 Y80.2 Z85.4 F100
G1 X64.1 Y80.3 Z85.8 F100
G1 X62.6 Y80.4 Z86.1 F100
G1 X59.6 Y80.6 Z86.5 F100
G1 X56.5 Y80.8 Z87.1 F100
G1 X53.3 Y80.9 Z87.6 F100
G1 X50 Y81 Z88 F100
G1 X46.7 Y81.1 Z88.5 F100
G1 X43.4 Y81.2 Z88.9 F100
G1 X40 Y81.2 Z89.2 F100
G1 X36.6 Y81.3 Z89.6 F100
G1 X33.3 Y81.3 Z89.9 F100
G1 X29.9 Y81.3 Z89.8 F100
G1 X26.6 Y81.2 Z89.5 F100
G1 X23.3 Y81.2 Z89.2 F100
G1 X20.1 Y81.1 Z88.9 F100
G1 X16.9 Y81 Z88.6 F100
G1 X13.8 Y80.9 Z88.3 F100
G1 X10.8 Y80.8 Z87.9 F100
G1 X9.4 Y80.8 Z89 F100
G1 X7.9 Y80.7 Z90 F100
G1 X6.5 Y80.6 Z91 F100
G1 X5.2 Y80.6 Z93 F100
G1 X3.8 Y80.5 Z93 F100
G1 X3.4 Y80.5 Z93.8 F100
