M106 S0
G4 S2
G1 X0 Y0 Z90 F400
M106 S255
G4 S2
G1 X36.1 Y11.9 Z90 F100
G1 X37 Y12.9 Z90 F100
G1 X37.9 Y13.9 Z90 F100
G1 X38.8 Y15 Z90 F100
G1 X39.6 Y16.2 Z90 F100
G1 X40.3 Y17.4 Z90 F100
G1 X41 Y18.6 Z90 F100
G1 X41.6 Y19.8 Z90 F100
G1 X42.1 Y21.1 Z90 F100
G1 X42.6 Y22.5 Z90 F100
G1 X43 Y23.8 Z90 F100
G1 X43.4 Y25.2 Z90 F100
G1 X43.6 Y26.6 Z90 F100
G1 X43.8 Y28.1 Z90 F100
G1 X44 Y29.5 Z90 F100
G1 X44 Y31 Z90 F100
G1 X44 Y32.4 Z90 F100
G1 X43.9 Y33.8 Z90 F100
G1 X43.7 Y35.1 Z90 F100
G1 X43.5 Y36.4 Z90 F100
G1 X43.2 Y37.7 Z90 F100
G1 X42.8 Y39 Z90 F100
G1 X42.4 Y40.3 Z90 F100
G1 X41.9 Y41.5 Z90 F100
G1 X41.3 Y42.7 Z90 F100
G1 X40.7 Y43.9 Z90 F100
G1 X40.1 Y45 Z90 F100
G1 X39.4 Y46.1 Z90 F100
G1 X38.6 Y47.2 Z90 F100
G1 X37.8 Y48.2 Z90 F100
G1 X37 Y49.2 Z90 F100
G1 X36.1 Y50.1 Z90 F100
G1 X35.2 Y51 Z90 F100
G1 X34.2 Y51.8 Z90 F100
G1 X33.2 Y52.6 Z90 F100
G1 X32.1 Y53.4 Z90 F100
G1 X31 Y54.1 Z90 F100
G1 X29.9 Y54.7 Z90 F100
G1 X28.7 Y55.3 Z90 F100
G1 X27.5 Y55.9 Z90 F100
G1 X26.3 Y56.4 Z90 F100
G1 X25 Y56.8 Z90 F100
G1 X23.7 Y57.2 Z90 F100
G1 X22.4 Y57.5 Z90 F100
G1 X21.1 Y57.7 Z90 F100
G1 X19.8 Y57.9 Z90 F100
G1 X18.4 Y58 Z90 F100
G1 X17 Y58 Z90 F100

