; Onboarding RFID path 2
; Used only when the RFID object has not been detected on Path 1
; This is likely to be a smaller object and needs to be moved closer
; to the side antenna. Caution, large objects will crash into the antenna !
G1 X252.000 Y0.000 Z90.000 F480.0
G1 X252.000 Y15.000 Z90.000 F480.0
G1 X244.000 Y15.000 Z90.000 F480.0
G1 X236.000 Y15.000 Z90.000 F480.0
G1 X228.000 Y15.000 Z90.000 F480.0
G1 X220.000 Y15.000 Z90.000 F480.0
G1 X212.000 Y15.000 Z90.000 F480.0
G1 X204.000 Y15.000 Z90.000 F480.0
G1 X196.000 Y15.000 Z90.000 F480.0
G1 X188.000 Y15.000 Z90.000 F480.0
G1 X180.000 Y15.000 Z90.000 F480.0
G1 X172.000 Y15.000 Z90.000 F480.0
G1 X164.000 Y15.000 Z90.000 F480.0
G1 X156.000 Y15.000 Z90.000 F480.0
G1 X148.000 Y15.000 Z90.000 F480.0
G1 X140.000 Y15.000 Z90.000 F480.0
G1 X132.000 Y15.000 Z90.000 F480.0
G1 X124.000 Y15.000 Z90.000 F480.0
G1 X116.000 Y15.000 Z90.000 F480.0
G1 X108.000 Y15.000 Z90.000 F480.0
G1 X100.000 Y15.000 Z90.000 F480.0
G1 X92.000 Y15.000 Z90.000 F480.0
G1 X92.000 Y0.000 Z90.000 F480.0
G1 X86.000 Y0.000 Z90.000 F360.0
G1 X76.000 Y0.000 Z90.000 F600.0
G1 X62.000 Y0.000 Z90.000 F840.0
G1 X48.000 Y0.000 Z90.000 F840.0
G1 X34.000 Y0.000 Z90.000 F840.0
G1 X20.000 Y0.000 Z90.000 F840.0
G1 X6.000 Y0.000 Z90.000 F840.0
G1 X0.000 Y0.000 Z90.000 F480.0